YUNHAI-1 03             
1 53877U 22115A   22279.15149743  .00000333  00000+0  13812-3 0  9993
2 53877  98.4985 277.5877 0001481  88.2598 271.8758 14.32796831  2185
CZ-2D R/B               
1 53878U 22115B   22278.94254301  .00001064  00000+0  17512-3 0  9990
2 53878  98.5452 278.3291 0124258 356.4260   3.6046 14.67944760  2207
SOYUZ-MS 22             
1 53879U 22116A   22278.50664374  .00029692  00000+0  53062-3 0  9996
2 53879  51.6412 150.0266 0002910 259.5903 172.3733 15.49765110362295
2022-118A               
1 53884U 22118A   22279.11019976  .00005617  00000+0  24194-3 0  9999
2 53884  97.5212 285.6313 0013871 217.6740 185.4897 15.22915350  1704
2022-118B               
1 53885U 22118B   22279.17467230  .00006491  00000+0  27400-3 0  9990
2 53885  97.5214 285.7064 0011007 223.4569 198.9296 15.23570476  1703
STARLINK-5028           
1 53886U 22119A   22278.91667824 -.01195902  00000+0 -87357-2 0  9999
2 53886  53.2175 198.8023 0001159  56.0978 265.0345 15.75387849  1303
STARLINK-5029           
1 53887U 22119B   22278.91667824 -.01202972  00000+0 -87756-2 0  9999
2 53887  53.2181 198.7994 0001187  66.4206 256.3702 15.75434945  1307
STARLINK-5034           
1 53888U 22119C   22278.91667824 -.01170603  00000+0 -85145-2 0  9995
2 53888  53.2175 198.8012 0004314 269.1426  52.5559 15.75383988  1300
STARLINK-5031           
1 53889U 22119D   22279.16667824 -.01048198  00000+0 -77888-2 0  9992
2 53889  53.2189 197.5626 0001470  50.2943 250.4036 15.74642664  2191
STARLINK-5050           
1 53890U 22119E   22279.16667824  .00318055  48763-4  97460-3 0  9995
2 53890  53.2237 197.1465 0024588  91.8689  55.9647 15.90876747  2204
STARLINK-5041           
1 53891U 22119F   22278.91667824 -.01195569  00000+0 -87055-2 0  9999
2 53891  53.2176 198.7962 0001188  52.3178 271.5777 15.75458795  1304
STARLINK-5046           
1 53892U 22119G   22279.16667824 -.00229257  00000+0 -16033-2 0  9997
2 53892  53.2180 197.5517 0006679 274.1337  31.3905 15.74155998  2195
STARLINK-5052           
1 53893U 22119H   22279.16667824 -.01168830  00000+0 -87234-2 0  9999
2 53893  53.2188 197.5555 0001075 106.2706 197.7404 15.74835526  2199
STARLINK-5043           
1 53894U 22119J   22278.91667824 -.01196012  00000+0 -87012-2 0  9999
2 53894  53.2176 198.7958 0001375  36.2823 288.1518 15.75477442  1305
STARLINK-5032           
1 53895U 22119K   22278.91667824 -.01196111  00000+0 -86854-2 0  9993
2 53895  53.2176 198.7918 0001398  34.1502 291.9365 15.75520399  1300
STARLINK-5037           
1 53896U 22119L   22279.16667824 -.00861914  00000+0 -63627-2 0  9994
2 53896  53.2190 197.5527 0005447 270.3507  35.4446 15.74662966  2193
STARLINK-5035           
1 53897U 22119M   22279.16667824 -.01059627  00000+0 -78535-2 0  9990
2 53897  53.2188 197.5570 0001283 128.3625 175.1400 15.74730255  2195
STARLINK-5044           
1 53898U 22119N   22278.91667824 -.01196962  00000+0 -86570-2 0  9995
2 53898  53.2176 198.7870 0001826  23.5239 305.2605 15.75607794  1306
STARLINK-5042           
1 53899U 22119P   22279.16667824 -.00670089  00000+0 -48626-2 0  9990
2 53899  53.2184 197.5500 0004947 276.6056  30.3942 15.74541004  2196
STARLINK-5045           
1 53900U 22119Q   22279.16667824 -.00097819  00000+0 -67065-3 0  9996
2 53900  53.2183 197.5468 0006647 272.5181  36.3760 15.74176396  2196
STARLINK-5024           
1 53901U 22119R   22278.91667824 -.01196691  00000+0 -86706-2 0  9990
2 53901  53.2182 198.7903 0001069  81.3080 246.3923 15.75574771  1306
STARLINK-5021           
1 53902U 22119S   22278.91667824 -.01195927  00000+0 -86083-2 0  9990
2 53902  53.2182 198.7808 0001084  56.8462 275.7245 15.75721145  1301
STARLINK-5022           
1 53903U 22119T   22278.91667824 -.01195510  00000+0 -86446-2 0  9992
2 53903  53.2181 198.7869 0001143  50.4485 278.8993 15.75616684  1304
STARLINK-4787           
1 53904U 22119U   22278.91667824 -.01196526  00000+0 -86356-2 0  9991
2 53904  53.2176 198.7841 0001228  46.7328 283.6617 15.75660924  1300
STARLINK-5003           
1 53905U 22119V   22278.91667824 -.01198661  00000+0 -86346-2 0  9993
2 53905  53.2181 198.7813 0001112  63.4091 268.6098 15.75710131  1303
STARLINK-5054           
1 53906U 22119W   22278.91667824 -.01196968  00000+0 -86018-2 0  9998
2 53906  53.2176 198.7775 0001554  30.7841 302.8620 15.75755318  1303
STARLINK-5063           
1 53907U 22119X   22278.91667824 -.01196972  00000+0 -86312-2 0  9991
2 53907  53.2176 198.7826 0001702  26.4959 304.4413 15.75676786  1307
STARLINK-5057           
1 53908U 22119Y   22278.91667824 -.01196406  00000+0 -85928-2 0  9996
2 53908  53.2176 198.7765 0001117  56.2074 277.9765 15.75771630  1307
STARLINK-4796           
1 53909U 22119Z   22279.25001157 -.01182705  00000+0 -88469-2 0  9996
2 53909  53.2181 197.1296 0001475  35.7416  27.1300 15.74813657  2211
STARLINK-5056           
1 53910U 22119AA  22279.25001157 -.01189817  00000+0 -88567-2 0  9998
2 53910  53.2174 197.1197 0001188  45.9937  21.3551 15.74945110  2211
STARLINK-5048           
1 53911U 22119AB  22279.25001157 -.01191487  00000+0 -89004-2 0  9992
2 53911  53.2181 197.1262 0001103  74.2712 350.2737 15.74870044  2219
STARLINK-5059           
1 53912U 22119AC  22279.25001157 -.01189941  00000+0 -88615-2 0  9992
2 53912  53.2174 197.1209 0001584  29.6906  37.0951 15.74931250  2210
STARLINK-5053           
1 53913U 22119AD  22278.91667824 -.01196653  00000+0 -85640-2 0  9997
2 53913  53.2176 198.7706 0001169  50.6840 286.1920 15.75852013  1304
STARLINK-5040           
1 53914U 22119AE  22278.91667824 -.01196813  00000+0 -85575-2 0  9993
2 53914  53.2176 198.7699 0001248  44.6853 292.7150 15.75871683  1303
STARLINK-5017           
1 53915U 22119AF  22278.91667824 -.01203862  00000+0 -86431-2 0  9999
2 53915  53.2182 198.7763 0001019  77.6249 257.0742 15.75799094  1300
STARLINK-5051           
1 53916U 22119AG  22279.25001157  .00173973  00000+0  10268-2 0  9990
2 53916  53.2241 197.1171 0001089 111.7528 322.6547 15.77134960  2210
STARLINK-5036           
1 53917U 22119AH  22279.25001157 -.01185788  00000+0 -88161-2 0  9998
2 53917  53.2182 197.1199 0001076  61.4596   6.4339 15.74963815  2219
STARLINK-5012           
1 53918U 22119AJ  22279.25001157 -.01184512  00000+0 -87821-2 0  9995
2 53918  53.2182 197.1155 0001108  73.8910 356.2368 15.75023735  2212
STARLINK-5023           
1 53919U 22119AK  22278.91667824 -.01199433  00000+0 -85633-2 0  9994
2 53919  53.2181 198.7674 0001159  57.4616 281.5802 15.75912920  1307
STARLINK-5025           
1 53920U 22119AL  22278.91667824 -.01208145  00000+0 -86056-2 0  9997
2 53920  53.2182 198.7636 0001083  64.9245 276.2443 15.75986664  1303
STARLINK-5005           
1 53921U 22119AM  22279.25001157  .00477302  10692-3  90928-3 0  9993
2 53921  53.2241 196.5301 0045900  88.1257 271.0718 15.98032268  2218
STARLINK-5002           
1 53922U 22119AN  22279.25001157 -.01199376  00000+0 -88634-2 0  9997
2 53922  53.2182 197.1089 0001082  67.4104   6.0337 15.75133979  2216
STARLINK-5004           
1 53923U 22119AP  22278.91667824 -.01199626  00000+0 -85460-2 0  9991
2 53923  53.2182 198.7646 0001126  55.5541 285.0883 15.75962875  1304
STARLINK-5001           
1 53924U 22119AQ  22278.91667824 -.01194067  00000+0 -84712-2 0  9995
2 53924  53.2182 198.7594 0001076  59.9224 283.3764 15.76043360  1306
STARLINK-5011           
1 53925U 22119AR  22279.25001157 -.01084983  00000+0 -79716-2 0  9998
2 53925  53.2178 197.1119 0001427  33.8934  37.3676 15.74987699  2217
STARLINK-5014           
1 53926U 22119AS  22278.91667824 -.01200412  00000+0 -85132-2 0  9996
2 53926  53.2182 198.7584 0000977  80.8856 262.9316 15.76067547  1309
STARLINK-5008           
1 53927U 22119AT  22278.91667824 -.01199390  00000+0 -85189-2 0  9991
2 53927  53.2182 198.7599 0001036  70.1934 272.5737 15.76030287  1307
STARLINK-5009           
1 53928U 22119AU  22278.91667824 -.01203266  00000+0 -85292-2 0  9995
2 53928  53.2182 198.7573 0001010  76.9878 267.3618 15.76085229  1309
STARLINK-5018           
1 53929U 22119AV  22279.25001157 -.01156146  00000+0 -85086-2 0  9990
2 53929  53.2182 197.1076 0001515  37.5929  36.4168 15.75119012  2214
STARLINK-5010           
1 53930U 22119AW  22278.91667824 -.01199086  00000+0 -84830-2 0  9999
2 53930  53.2182 198.7552 0001073  72.8363 272.5617 15.76118426  1305
STARLINK-5015           
1 53931U 22119AX  22279.25001157 -.01159946  00000+0 -84883-2 0  9998
2 53931  53.2182 197.0985 0001297  43.4692  34.9283 15.75259025  2215
STARLINK-4772           
1 53932U 22119AY  22278.91667824 -.01198181  00000+0 -84371-2 0  9996
2 53932  53.2176 198.7534 0006669 270.7062  75.1933 15.76140210  1305
STARLINK-4782           
1 53933U 22119AZ  22278.91667824 -.01196393  00000+0 -84684-2 0  9997
2 53933  53.2176 198.7549 0001014  70.5447 274.3220 15.76100731  1300
STARLINK-4775           
1 53934U 22119BA  22278.91667824 -.01196893  00000+0 -84475-2 0  9991
2 53934  53.2176 198.7513 0001120  54.3746 292.6149 15.76165757  1304
STARLINK-5000           
1 53935U 22119BB  22279.25001157 -.01196778  00000+0 -87668-2 0  9990
2 53935  53.2182 197.0953 0000972  80.9951 359.0575 15.75328039  2214
STARLINK-4791           
1 53936U 22119BC  22278.91667824 -.01195631  00000+0 -84304-2 0  9993
2 53936  53.2182 198.7511 0001042  55.6362 291.8652 15.76185389  1305
STARLINK-4765           
1 53937U 22119BD  22278.91667824 -.01197332  00000+0 -84286-2 0  9993
2 53937  53.2176 198.7474 0001575  29.5429 319.0099 15.76220501  1306
FALCON 9 DEB            
1 53938U 22119BE  22278.52119902  .01438674  11619-4  10596-2 0  9991
2 53938  53.2263 199.7879 0052021  89.8690 270.8308 16.11664463  2537
FALCON 9 DEB            
1 53939U 22119BF  22278.51775161  .01420653  11629-4  10418-2 0  9998
2 53939  53.2210 199.7572 0047682  92.0169 268.6330 16.12212674  2538
